{"company_listing": [{"Company Name": "Douglas, Walsh and Luettgen", "Address Line 1": "0630 Annalise Rue Apt. 686", "Address Line 2": "Apt. 221", "City": "Aleasebury", "State": "Mississippi", "Zipcode": "39516", "Phone": "006-152-4393", "Company Website": "hettinger.com", "Company Description": "harness scalable interfaces"}, {"Company Name": "Stehr, Beahan and Spencer", "Address Line 1": "604 Irine Via Apt. 032", "Address Line 2": "Suite 096", "City": "South Raetown", "State": "Georgia", "Zipcode": "46391", "Phone": "(959)326-7147x005", "Company Website": "shieldsledner.info", "Company Description": "leverage customized eyeballs"}, {"Company Name": "Torphy-Larkin", "Address Line 1": "821 Weston Streets Suite 725", "Address Line 2": "Suite 753", "City": "Lake Garrison", "State": "Texas", "Zipcode": "70350", "Phone": "418-431-6723x928", "Company Website": "reynolds.org", "Company Description": "incubate wireless bandwidth"}, {"Company Name": "Ryan and Sons", "Address Line 1": "2489 Kuvalis Pine Suite 331", "Address Line 2": "Apt. 624", "City": "Port Lunaburgh", "State": "Connecticut", "Zipcode": "71359", "Phone": "193-181-8500", "Company Website": "skiles.net", "Company Description": "facilitate intuitive bandwidth"}, {"Company Name": "Kulas, White and Weimann", "Address Line 1": "00827 Thiel Center", "Address Line 2": "Apt. 298", "City": "South Fayetteside", "State": "Indiana", "Zipcode": "25740", "Phone": "(067)591-1928", "Company Website": "haley.com", "Company Description": "scale seamless e-business"}, {"Company Name": "Schmidt and Sons", "Address Line 1": "8666 Smith Park Apt. 572", "Address Line 2": "Apt. 498", "City": "West Lafayetteshire", "State": "Alabama", "Zipcode": "56259", "Phone": "794.091.3608x97031", "Company Website": "leannon.net", "Company Description": "reinvent robust content"}, {"Company Name": "Nitzsche Inc", "Address Line 1": "0230 Roselyn Canyon Apt. 517", "Address Line 2": "Apt. 892", "City": "North Jocelyntown", "State": "RhodeIsland", "Zipcode": "21207", "Phone": "661.652.2262x491", "Company Website": "torphy.info", "Company Description": "seize world-class paradigms"}, {"Company Name": "Leffler Inc", "Address Line 1": "7298 Classie Expressway", "Address Line 2": "Suite 666", "City": "Hilleryview", "State": "Colorado", "Zipcode": "00559", "Phone": "(854)432-4255", "Company Website": "turner.com", "Company Description": "engineer front-end deliverables"}, {"Company Name": "Hahn, Botsford and Brown", "Address Line 1": "49209 Osinski Cliff", "Address Line 2": "Apt. 199", "City": "New Reinamouth", "State": "Ohio", "Zipcode": "32460", "Phone": "1-609-327-9899x305", "Company Website": "grimes.org", "Company Description": "cultivate front-end portals"}, {"Company Name": "West, Reichel and Keebler", "Address Line 1": "954 Howe Harbor Suite 413", "Address Line 2": "Suite 933", "City": "Wittingchester", "State": "Ohio", "Zipcode": "00661", "Phone": "075-393-9997", "Company Website": "corkery.net", "Company Description": "productize virtual interfaces"}]}